TIANMU-1 07             
1 57399U 23101A   26065.57454230  .00008352  00000+0  29795-3 0  9991
2 57399  97.2728 118.5929 0004609 142.4105 217.7458 15.29118809145964
STARLINK-33821          
1 63859U 25093Z   26068.05884094  .00032066  00000+0  11695-2 0  9990
2 63859  43.0003  81.5957 0000901 277.1325  82.9424 15.27586901 47852
